{
    "links": {
        "self": "http://www.neowsapp.com/rest/v1/neo/3799855?api_key=iIulBulltgU6a56xZRHN4H3l9WmuAYTsLGpBGhQ2"
    },
    "id": "3799855",
    "neo_reference_id": "3799855",
    "name": "(2018 EV2)",
    "designation": "2018 EV2",
    "nasa_jpl_url": "http://ssd.jpl.nasa.gov/sbdb.cgi?sstr=3799855",
    "absolute_magnitude_h": 24.7,
    "estimated_diameter": {
        "kilometers": {
            "estimated_diameter_min": 0.0305179233,
            "estimated_diameter_max": 0.0682401509
        },
        "meters": {
            "estimated_diameter_min": 30.5179232594,
            "estimated_diameter_max": 68.2401509401
        },
        "miles": {
            "estimated_diameter_min": 0.0189629525,
            "estimated_diameter_max": 0.0424024508
        },
        "feet": {
            "estimated_diameter_min": 100.1244233463,
            "estimated_diameter_max": 223.8850168104
        }
    },
    "is_potentially_hazardous_asteroid": false,
    "close_approach_data": [
        {
            "close_approach_date": "1900-01-31",
            "close_approach_date_full": "1900-Jan-31 23:42",
            "epoch_date_close_approach": -2206311480000,
            "relative_velocity": {
                "kilometers_per_second": "12.7070401451",
                "kilometers_per_hour": "45745.3445222318",
                "miles_per_hour": "28424.3781004946"
            },
            "miss_distance": {
                "astronomical": "0.1470044112",
                "lunar": "57.1847159568",
                "kilometers": "21991546.796124144",
                "miles": "13664913.5286514272"
            },
            "orbiting_body": "Venus"
        },
        {
            "close_approach_date": "2018-02-21",
            "close_approach_date_full": "2018-Feb-21 18:58",
            "epoch_date_close_approach": 1519239480000,
            "relative_velocity": {
                "kilometers_per_second": "11.2731734268",
                "kilometers_per_hour": "40583.4243364609",
                "miles_per_hour": "25216.9616383971"
            },
            "miss_distance": {
                "astronomical": "0.0552183075",
                "lunar": "21.4799216175",
                "kilometers": "8260541.187005025",
                "miles": "5132862.279618345"
            },
            "orbiting_body": "Earth"
        }
    ],
    "orbital_data": {
        "orbit_id": "1",
        "orbit_determination_date": "2018-03-12 08:12:02",
        "first_observation_date": "2018-03-07",
        "last_observation_date": "2018-03-12",
        "data_arc_in_days": 5,
        "observations_used": 9,
        "orbit_uncertainty": "9",
        "minimum_orbit_intersection": ".0310511",
        "jupiter_tisserand_invariant": "4.952",
        "epoch_osculation": "2458186.5",
        "eccentricity": ".4199510481530189",
        "semi_major_axis": "1.283601430236974",
        "inclination": "4.895698866742067",
        "ascending_node_longitude": "10.99917421768418",
        "orbital_period": "531.1824471132745",
        "perihelion_distance": ".7445516641982429",
        "perihelion_argument": "61.30662565743638",
        "aphelion_distance": "1.822651196275706",
        "perihelion_time": "2458116.101716326200",
        "mean_anomaly": "47.71125676365493",
        "mean_motion": ".6777332382808013",
        "equinox": "J2000",
        "orbit_class": {
            "orbit_class_type": "APO",
            "orbit_class_description": "Near-Earth asteroid orbits which cross the Earth’s orbit similar to that of 1862 Apollo",
            "orbit_class_range": "a (semi-major axis) > 1.0 AU; q (perihelion) < 1.017 AU"
        }
    },
    "is_sentry_object": false
}